0 HIMAWARI 5 (GMS 5)
1 23522U 95011B   13285.80291081 -.00000108  00000-0  10000-3 0  9543
2 23522 010.8415 044.3173 0009739 043.8869 316.1950 00.99402170 67632
0 HIMAWARI 5 (GMS 5)
1 23522U 95011B   13287.81485046 -.00000061  00000-0  10000-3 0  9551
2 23522 010.8449 044.2945 0009744 043.4973 316.5757 00.99401549 67653
0 HIMAWARI 5 (GMS 5)
1 23522U 95011B   13288.82081296 -.00000037  00000-0  10000-3 0  9566
2 23522 010.8470 044.2831 0009178 043.1503 316.9113 00.99401337 67664
0 HIMAWARI 5 (GMS 5)
1 23522U 95011B   13290.83272012  .00000006  00000-0  10000-3 0  9574
2 23522 010.8510 044.2604 0009253 042.3334 317.7086 00.99401108 67680
0 HIMAWARI 5 (GMS 5)
1 23522U 95011B   13292.84464500  .00000044  00000-0  10000-3 0  9585
2 23522 010.8545 044.2374 0009068 042.5857 317.4413 00.99401113 67708
0 HIMAWARI 5 (GMS 5)
1 23522U 95011B   13294.85659983  .00000072  00000-0  10000-3 0  9591
2 23522 010.8580 044.2144 0008465 039.5217 320.5002 00.99401408 67726
